[Satellite]
VERSION=1.1
NAME=SL-16 R/B
NICKNAME=SL-16 R/B
TLE1=1 16182U 85097B   22342.36098625  .00000250  00000+0  15026-3 0  9992
TLE2=2 16182  71.0019 119.5977 0009811 267.2959 121.5609 14.16298193919092
STATUS=0
